[
    {
        "Altitude(m)": 607897.6087586051,
        "Argument of Periapsis(deg)": 0.0,
        "Eccentricity": 0.0,
        "Inclination(deg)": 60.0,
        "Latitude(deg)": -14.292901386536547,
        "Longitude(deg)": 131.6187422050153,
        "Mean Anomaly(deg)": -16.363600000000037,
        "RAAN(deg)": 240.0,
        "Satellite Name": "Test1 1077",
        "Satellite Number": 1077,
        "Semi-Major Axis(m)": 6980739.136638005,
        "Time(s)": 0
    },
    {
        "Altitude(m)": 607750.8102906035,
        "Argument of Periapsis(deg)": 0.00010418945913296404,
        "Eccentricity": 0.0,
        "Inclination(deg)": 60.0,
        "Latitude(deg)": -13.75874304216348,
        "Longitude(deg)": 131.9058115934121,
        "Mean Anomaly(deg)": -15.743493854538185,
        "RAAN(deg)": 239.99957995086024,
        "Satellite Name": "Test1 1077",
        "Satellite Number": 1077,
        "Semi-Major Axis(m)": 6980739.136638005,
        "Time(s)": 10
    }
]